[{"OBJECT_NAME":"STARLINK-4008","OBJECT_ID":"2022-052AA","EPOCH":"2026-03-09T23:11:29.274720","MEAN_MOTION":15.08837568,"ECCENTRICITY":0.00013888,"INCLINATION":53.2179,"RA_OF_ASC_NODE":282.8813,"ARG_OF_PERICENTER":91.5508,"MEAN_ANOMALY":268.5643,"EPHEMERIS_TYPE":0,"CLASSIFICATION_TYPE":"U","NORAD_CAT_ID":52622,"ELEMENT_SET_NO":999,"REV_AT_EPOCH":21082,"BSTAR":-1.0908495e-5,"MEAN_MOTION_DOT":-4.62e-6,"MEAN_MOTION_DDOT":0},{"OBJECT_NAME":"CZ-4B DEB","OBJECT_ID":"2004-035K","EPOCH":"2026-03-08T06:51:30.377664","MEAN_MOTION":15.09293825,"ECCENTRICITY":0.00031468,"INCLINATION":97.5843,"RA_OF_ASC_NODE":91.2716,"ARG_OF_PERICENTER":107.6302,"MEAN_ANOMALY":252.527,"EPHEMERIS_TYPE":0,"CLASSIFICATION_TYPE":"U","NORAD_CAT_ID":29043,"ELEMENT_SET_NO":999,"REV_AT_EPOCH":10418,"BSTAR":0.00031897975,"MEAN_MOTION_DOT":5.021e-5,"MEAN_MOTION_DDOT":0}]
